IRIDIUM 119             
1 42959U 17061E   23285.90229461  .00000535  00000+0  18415-3 0  9991
2 42959  86.3937  74.0787 0001862  81.6309 278.5097 14.34214364314596
IRIDIUM 107             
1 42960U 17061F   23285.85155891 -.00001423  00000+0 -51530-3 0  9996
2 42960  86.3937  74.1157 0001637  84.3961 275.7421 14.34213445314593
IRIDIUM 132             
1 42961U 17061G   23285.50905397  .00000687  00000+0  23813-3 0  9995
2 42961  86.3935  74.2450 0001951  85.8083 274.3335 14.34223134314549
IRIDIUM 136             
1 42962U 17061H   23285.88960687  .00000550  00000+0  18933-3 0  9996
2 42962  86.3937  74.0878 0002147  85.7606 274.3835 14.34216524314610
IRIDIUM 139             
1 42963U 17061J   23285.89595503 -.00000079  00000+0 -35408-4 0  9994
2 42963  86.3938  74.1319 0001707  88.1872 271.9519 14.34214866314626
IRIDIUM 125             
1 42964U 17061K   23285.67396218  .00000736  00000+0  25588-3 0  9998
2 42964  86.3938  74.2677 0001911  84.5531 275.5883 14.34218492314605
IRIDIUM 135             
1 43070U 17083A   23285.78762457  .00001008  00000+0  35281-3 0  9999
2 43070  86.4029  10.9209 0002190 102.1204 258.0237 14.34214321303916
IRIDIUM 138             
1 43071U 17083B   23285.74322019  .00000698  00000+0  24236-3 0  9994
2 43071  86.4018  10.6873 0002014  83.0009 277.1416 14.34213176303899
